IRIDIUM 63              
1 25286U 98021B   25326.63846655  .00000435  00000+0  14114-3 0  9999
2 25286  86.4004  15.6484 0002399  96.9152 263.2318 14.36713452446599
IRIDIUM 69              
1 25319U 98026A   25326.71887410  .00000602  00000+0  18068-3 0  9992
2 25319  86.3998  28.4005 0002112 162.9306 197.1965 14.41185722445890
IRIDIUM 71              
1 25320U 98026B   25326.63772021  .00000341  00000+0  99487-4 0  9991
2 25320  86.3998  23.1096 0000413  23.0326 337.0892 14.41300776446416
IRIDIUM 73              
1 25344U 98032C   25326.58637830  .00000646  00000+0  15519-3 0  9997
2 25344  86.4407 339.5564 0002457 107.7630 252.3844 14.51950285453545
IRIDIUM 82              
1 25467U 98051A   25326.64109069  .00036890  00000+0  72768-3 0  9998
2 25467  86.3633  31.2073 0066433  52.5100 308.2170 15.44574211448298
